{"fetched_at":"2026-07-23T17:55:13.276Z","source":"https://celestrak.org/NORAD/elements/gp.php?GROUP=spire&FORMAT=JSON","constellation":"spire","records":[{"OBJECT_NAME":"LEMUR-2-VALHALLA","OBJECT_ID":"2024-022B","EPOCH":"2026-07-23T03:11:10.020768","CLASSIFICATION_TYPE":"U","MEAN_MOTION":15.40670183,"ECCENTRICITY":0.0008368,"INCLINATION":97.4083,"RA_OF_ASC_NODE":54.5774,"ARG_OF_PERICENTER":355.7058,"MEAN_ANOMALY":4.4115,"EPHEMERIS_TYPE":0,"NORAD_CAT_ID":58900,"ELEMENT_SET_NO":999,"REV_AT_EPOCH":13780,"BSTAR":0.00041338018,"MEAN_MOTION_DOT":0.0001681,"MEAN_MOTION_DDOT":0},{"OBJECT_NAME":"LEMUR-2-CAEL","OBJECT_ID":"2024-022E","EPOCH":"2026-07-23T02:40:15.237408","CLASSIFICATION_TYPE":"U","MEAN_MOTION":15.4205608,"ECCENTRICITY":0.00062741,"INCLINATION":97.4063,"RA_OF_ASC_NODE":55.5568,"ARG_OF_PERICENTER":339.09,"MEAN_ANOMALY":21.009,"EPHEMERIS_TYPE":0,"NORAD_CAT_ID":58903,"ELEMENT_SET_NO":999,"REV_AT_EPOCH":13787,"BSTAR":0.00042688584,"MEAN_MOTION_DOT":0.00018174,"MEAN_MOTION_DDOT":0},{"OBJECT_NAME":"LEMUR-2-JOHNNYTRUONG","OBJECT_ID":"2024-043BA","EPOCH":"2026-07-23T05:19:14.129184","CLASSIFICATION_TYPE":"U","MEAN_MOTION":15.63082317,"ECCENTRICITY":0.00036129,"INCLINATION":97.5397,"RA_OF_ASC_NODE":358.2363,"ARG_OF_PERICENTER":67.5415,"MEAN_ANOMALY":292.6226,"EPHEMERIS_TYPE":0,"NORAD_CAT_ID":59146,"ELEMENT_SET_NO":999,"REV_AT_EPOCH":13366,"BSTAR":0.00051848002,"MEAN_MOTION_DOT":0.00047236,"MEAN_MOTION_DDOT":0},{"OBJECT_NAME":"LEMUR-2-TOMATOKECHUP","OBJECT_ID":"2024-149D","EPOCH":"2026-07-23T04:32:37.253184","CLASSIFICATION_TYPE":"U","MEAN_MOTION":15.36706847,"ECCENTRICITY":0.00034583,"INCLINATION":97.3787,"RA_OF_ASC_NODE":286.3428,"ARG_OF_PERICENTER":108.0349,"MEAN_ANOMALY":252.1272,"EPHEMERIS_TYPE":0,"NORAD_CAT_ID":60471,"ELEMENT_SET_NO":999,"REV_AT_EPOCH":10769,"BSTAR":0.0003274959,"MEAN_MOTION_DOT":0.00011667,"MEAN_MOTION_DDOT":0},{"OBJECT_NAME":"LEMUR-2-STELLA","OBJECT_ID":"2024-149BT","EPOCH":"2026-07-23T05:04:35.407488","CLASSIFICATION_TYPE":"U","MEAN_MOTION":15.12495058,"ECCENTRICITY":0.00014812,"INCLINATION":97.6726,"RA_OF_ASC_NODE":286.8402,"ARG_OF_PERICENTER":122.3679,"MEAN_ANOMALY":237.7695,"EPHEMERIS_TYPE":0,"NORAD_CAT_ID":60533,"ELEMENT_SET_NO":999,"REV_AT_EPOCH":10594,"BSTAR":0.00063844612,"MEAN_MOTION_DOT":0.00011056,"MEAN_MOTION_DDOT":0},{"OBJECT_NAME":"LEMUR-2-MARHISYAM","OBJECT_ID":"2024-149BW","EPOCH":"2026-07-23T04:56:03.792480","CLASSIFICATION_TYPE":"U","MEAN_MOTION":15.11887017,"ECCENTRICITY":0.00020128,"INCLINATION":97.6869,"RA_OF_ASC_NODE":287.3188,"ARG_OF_PERICENTER":55.8862,"MEAN_ANOMALY":304.2559,"EPHEMERIS_TYPE":0,"NORAD_CAT_ID":60536,"ELEMENT_SET_NO":999,"REV_AT_EPOCH":10592,"BSTAR":0.00056526551,"MEAN_MOTION_DOT":0.00009615,"MEAN_MOTION_DDOT":0},{"OBJECT_NAME":"LEMUR-2-AHMED-ASRAR","OBJECT_ID":"2024-149DN","EPOCH":"2026-07-23T04:53:43.971360","CLASSIFICATION_TYPE":"U","MEAN_MOTION":15.13436075,"ECCENTRICITY":0.0001904,"INCLINATION":97.6992,"RA_OF_ASC_NODE":289.5523,"ARG_OF_PERICENTER":180.0962,"MEAN_ANOMALY":180.0269,"EPHEMERIS_TYPE":0,"NORAD_CAT_ID":60576,"ELEMENT_SET_NO":999,"REV_AT_EPOCH":10601,"BSTAR":0.00068686351,"MEAN_MOTION_DOT":0.00012218,"MEAN_MOTION_DDOT":0},{"OBJECT_NAME":"LEMUR-2-LLOYD","OBJECT_ID":"2024-149DP","EPOCH":"2026-07-23T04:01:55.677792","CLASSIFICATION_TYPE":"U","MEAN_MOTION":15.09860548,"ECCENTRICITY":0.00040849,"INCLINATION":97.6738,"RA_OF_ASC_NODE":285.3299,"ARG_OF_PERICENTER":50.4202,"MEAN_ANOMALY":309.7387,"EPHEMERIS_TYPE":0,"NORAD_CAT_ID":60577,"ELEMENT_SET_NO":999,"REV_AT_EPOCH":10582,"BSTAR":0.00068074116,"MEAN_MOTION_DOT":0.00010964,"MEAN_MOTION_DDOT":0},{"OBJECT_NAME":"LEMUR-2-SQUIRRELCOMM","OBJECT_ID":"2024-149DQ","EPOCH":"2026-07-23T04:03:12.636000","CLASSIFICATION_TYPE":"U","MEAN_MOTION":15.07509146,"ECCENTRICITY":0.00039079,"INCLINATION":97.6704,"RA_OF_ASC_NODE":284.9731,"ARG_OF_PERICENTER":289.7571,"MEAN_ANOMALY":70.3235,"EPHEMERIS_TYPE":0,"NORAD_CAT_ID":60578,"ELEMENT_SET_NO":999,"REV_AT_EPOCH":10582,"BSTAR":0.00041060622,"MEAN_MOTION_DOT":0.00006172,"MEAN_MOTION_DDOT":0},{"OBJECT_NAME":"LEMUR-2-SIERRINI","OBJECT_ID":"2024-149DR","EPOCH":"2026-07-23T04:04:20.106624","CLASSIFICATION_TYPE":"U","MEAN_MOTION":15.11635996,"ECCENTRICITY":0.00060331,"INCLINATION":97.6834,"RA_OF_ASC_NODE":286.9364,"ARG_OF_PERICENTER":69.5119,"MEAN_ANOMALY":290.6758,"EPHEMERIS_TYPE":0,"NORAD_CAT_ID":60579,"ELEMENT_SET_NO":999,"REV_AT_EPOCH":10589,"BSTAR":0.00071457258,"MEAN_MOTION_DOT":0.00012096,"MEAN_MOTION_DDOT":0},{"OBJECT_NAME":"LEMUR-2-WILSON","OBJECT_ID":"2025-009CP","EPOCH":"2026-07-23T03:57:47.613024","CLASSIFICATION_TYPE":"U","MEAN_MOTION":14.95300842,"ECCENTRICITY":0.00015377,"INCLINATION":97.7016,"RA_OF_ASC_NODE":281.9988,"ARG_OF_PERICENTER":276.741,"MEAN_ANOMALY":83.3636,"EPHEMERIS_TYPE":0,"NORAD_CAT_ID":62694,"ELEMENT_SET_NO":999,"REV_AT_EPOCH":8273,"BSTAR":0.00020949158,"MEAN_MOTION_DOT":0.00002251,"MEAN_MOTION_DDOT":0},{"OBJECT_NAME":"LEMUR-2-STAR-FOX","OBJECT_ID":"2025-009CR","EPOCH":"2026-07-23T04:23:42.442368","CLASSIFICATION_TYPE":"U","MEAN_MOTION":15.02923009,"ECCENTRICITY":0.00013954,"INCLINATION":97.6905,"RA_OF_ASC_NODE":285.5326,"ARG_OF_PERICENTER":8.2917,"MEAN_ANOMALY":351.833,"EPHEMERIS_TYPE":0,"NORAD_CAT_ID":62696,"ELEMENT_SET_NO":999,"REV_AT_EPOCH":8296,"BSTAR":0.00060794031,"MEAN_MOTION_DOT":0.00008107,"MEAN_MOTION_DDOT":0},{"OBJECT_NAME":"LEMUR-2-ARIANNA","OBJECT_ID":"2025-009CU","EPOCH":"2026-07-23T04:21:28.574208","CLASSIFICATION_TYPE":"U","MEAN_MOTION":15.02927089,"ECCENTRICITY":0.00017553,"INCLINATION":97.6849,"RA_OF_ASC_NODE":285.277,"ARG_OF_PERICENTER":20.3119,"MEAN_ANOMALY":339.8175,"EPHEMERIS_TYPE":0,"NORAD_CAT_ID":62699,"ELEMENT_SET_NO":999,"REV_AT_EPOCH":8296,"BSTAR":0.0006111167,"MEAN_MOTION_DOT":0.00008151,"MEAN_MOTION_DDOT":0},{"OBJECT_NAME":"LEMUR-2-ALISIA","OBJECT_ID":"2025-009DB","EPOCH":"2026-07-22T22:51:35.057376","CLASSIFICATION_TYPE":"U","MEAN_MOTION":15.0325735,"ECCENTRICITY":0.0005019,"INCLINATION":97.6959,"RA_OF_ASC_NODE":285.8903,"ARG_OF_PERICENTER":109.3462,"MEAN_ANOMALY":250.8306,"EPHEMERIS_TYPE":0,"NORAD_CAT_ID":62706,"ELEMENT_SET_NO":999,"REV_AT_EPOCH":10553,"BSTAR":0.00063600695,"MEAN_MOTION_DOT":0.00008562,"MEAN_MOTION_DDOT":0},{"OBJECT_NAME":"LEMUR-2-ROUNDTRIPPER","OBJECT_ID":"2025-009DG","EPOCH":"2026-07-23T03:38:32.887392","CLASSIFICATION_TYPE":"U","MEAN_MOTION":15.04318028,"ECCENTRICITY":0.00042861,"INCLINATION":97.7239,"RA_OF_ASC_NODE":286.7903,"ARG_OF_PERICENTER":48.3858,"MEAN_ANOMALY":311.7734,"EPHEMERIS_TYPE":0,"NORAD_CAT_ID":62711,"ELEMENT_SET_NO":999,"REV_AT_EPOCH":8303,"BSTAR":0.00056466791,"MEAN_MOTION_DOT":0.00007811,"MEAN_MOTION_DDOT":0},{"OBJECT_NAME":"LEMUR-2-MYNAMEISJEFF","OBJECT_ID":"2025-009DH","EPOCH":"2026-07-22T22:49:04.774944","CLASSIFICATION_TYPE":"U","MEAN_MOTION":15.0430997,"ECCENTRICITY":0.00042798,"INCLINATION":97.7284,"RA_OF_ASC_NODE":286.9921,"ARG_OF_PERICENTER":81.9127,"MEAN_ANOMALY":278.2584,"EPHEMERIS_TYPE":0,"NORAD_CAT_ID":62712,"ELEMENT_SET_NO":999,"REV_AT_EPOCH":8300,"BSTAR":0.00065169231,"MEAN_MOTION_DOT":0.00009024,"MEAN_MOTION_DDOT":0}]}
